"1 87159U          22076.08961003  .00001008  00000+0  12542-2 0  9998",
"2 87159  90.3104  23.2140 0119485 339.6955  19.9471 13.61261963370479",
"1 87163U 76126    22076.08201637  .00001136  00000+0  36516-3 0  9995",
"2 87163  65.6043 328.4762 0715369 300.5517  52.6800 13.50967761392140",
"1 87164U          22075.16641887  .00001466  00000+0  42018-3 0  9997",
"2 87164  65.2046 275.3679 0158157 267.3255  90.9725 14.41316126 31945",
"1 87203U          22076.25313941  .00005493  00000+0  12390-2 0  9992",
"2 87203  98.8776   5.2640 0060584 184.1197 175.9508 14.55630434353278",
"1 87204U          22076.07908992  .00001161  00000+0  54871-3 0  9998",
"2 87204  98.6732 308.6198 0051567 344.8033  15.1593 14.20971690430866",
"1 87211U          22074.52479179  .00001315  00000+0  49381-3 0  9995",
"2 87211  99.0068 347.7573 0066545 218.9598 315.0900 14.32192636511133",
"1 87213U 99025    22061.26937320  .00011828  00000+0  14036-2 0  9994",
"2 87213  99.0448 242.2975 0058868 120.9725 239.7288 14.83420924356773",
"1 87214U 70025    22075.88771824  .00000316  00000+0  35220-3 0  9991",
"2 87214 100.3350 294.1817 0079220 151.9326 208.6127 13.78939561411571",
"1 87222U          22076.10914812  .00040629  00000+0  18672-2 0  9990",
"2 87222  98.9626  29.4253 0047268 237.1525 122.5150 15.19242745542692",
"1 87228U 99025    22075.07472618  .00006587  00000+0  22983-2 0  9994",
"2 87228  98.9256 202.2798 0047616 176.8120 183.3376 14.34982957408013",
"1 87235U          22075.11002698  .00002934  00000+0  10902-2 0  9999",
"2 87235  98.9498 220.6631 0152351 220.6223 138.3510 14.26716843390070",
"1 87237U 99025    22075.87134439  .00000208  00000+0  19680-3 0  9993",
"2 87237  99.4257 107.6145 0105548   5.5221 168.5467 13.90066160421755",
"1 87239U 81053    22076.42260027  .00002144  00000+0  88994-3 0  9997",
"2 87239  82.8837 132.4082 0026852 290.4813  69.3489 14.25943428431804",
"1 87245U 71015    22075.94594050  .00003456  00000+0  88873-3 0  9996",
"2 87245  65.6651  30.1758 0512858  58.6788   6.0351 13.93915452422423",
"1 87256U 99025    22072.44506947  .00000403  00000+0  26754-3 0  9998",
"2 87256  98.8535 143.1050 0043032 293.8335  65.8326 14.06572795390982",
"1 87271U 71015    22076.46148959  .00001627  00000+0  41131-3 0  9990",
"2 87271  65.7742 202.5235 0551565  42.8569 321.4143 13.89128594420686",
"1 87280U          22075.56198818  .00000098  00000+0  28357-3 0  9991",
"2 87280  64.6185  11.4705 0125594 229.8729 129.1252 13.47042557349602",
"1 87293U 71015    22076.12361969  .00002881  00000+0  72562-3 0  9990",
"2 87293  65.9086  94.9836 0522635   8.7722 352.2055 13.93261925422183",
"1 87300U 70025    22076.02140946  .00000768  00000+0  62748-3 0  9995",
"2 87300 100.1018 277.2421 0032169 316.1444  43.7159 13.93116224422458",
"1 87304U          22076.42293258  .00000735  00000+0  13251-3 0  9993",
"2 87304  74.0177  98.1333 0019451  51.4307 308.8602 14.68337817445533",
"1 87305U 93036    22074.17260992  .00006368  00000+0  11998-2 0  9997",
"2 87305  73.9978 341.6172 0033899 108.5381 251.9475 14.64371512273122",
"1 87320U 71015    22075.74379800  .00000759  00000+0  54869-3 0  9993",
"2 87320  66.5972  80.9618 0447204 200.7088 157.5345 13.62234699407090",
"1 87334U          22076.51135844  .00005141  00000+0  65733-2 0  9999",
"2 87334  90.0013 270.9629 0079135  87.2503 273.7709 13.61521482198607",
"1 87335U          22076.00864370  .00005952  00000+0  75486-2 0  9993",
"2 87335  89.9888 269.3934 0083929  65.7797 295.2103 13.61876183198594",
"1 87382U 93016    22075.88106439  .00069461  00000+0  69634-2 0  9997",
"2 87382  70.9580 167.0901 0018850 329.2859  30.7198 14.90816969355300",
"1 87397U 94029    22075.91781136  .00005752  00000+0  99085-3 0  9992",
"2 87397  81.2520 147.6857 0013043 126.2403 234.0008 14.68392060355932",
"1 87405U 81053    22075.89826918  .00000820  00000+0  65588-3 0  9992",
"2 87405  82.7567  50.0792 0054464 285.9488  73.5679 13.89095754420982",
"1 87410U 76077    22074.29686779  .00001311  00000+0  12351-1 0  9994",
"2 87410 102.2729  18.6961 0202719 354.4920   5.3906 12.19454196370043",
"1 87416U 81053    22074.21433277  .00002797  00000+0  11396-2 0  9993",
"2 87416  82.8350  56.0491 0021246   8.6214 351.5331 14.27045285413079",
"1 87423U 99057    22076.37351396  .00030942  00000+0  25365-2 0  9998",
"2 87423  98.8239 123.3457 0041911 310.9423  48.8171 14.98503776357080",
"1 87426U          22076.29543131  .00001478  00000+0  79084-3 0  9992",
"2 87426  65.8109  22.6661 0091265 288.9311 224.1083 14.14040295428527",
"1 87433U          22076.08826617  .00001325  00000+0  26594-2 0  9998",
"2 87433 100.2193 214.6478 0043188 291.3449  68.3069 13.36098550249806",
"1 87448U 70025    22076.05595080  .00000971  00000+0  89649-3 0  9999",
"2 87448 100.4561 108.5441 0069017 123.2884 237.4903 13.84499794419767",
"1 87456U 76126    22075.15468791  .00007409  00000+0  13072-2 0  9993",
"2 87456  65.7936  35.0002 0621341 336.4244  20.9428 13.87278295420273",
"1 87468U 93036    22072.76183187  .00007356  00000+0  86298-3 0  9994",
"2 87468  74.0143  91.8481 0066348 205.3060 154.4865 14.83528807276305",
"1 87491U 99025    22075.16641628  .00005641  00000+0  13348-2 0  9990",
"2 87491  98.6279 154.9830 0068999  38.2189 322.3868 14.53038971383034",
"1 87501U 93036    22074.83880293  .00009956  00000+0  28758-2 0  9998",
"2 87501  74.0370 262.3578 0012141 323.7360  36.2973 14.44634939270613",
"1 87517U 76126    22073.86189862  .00001944  00000+0  61809-3 0  9996",
"2 87517  65.8260 280.9480 0736277 239.9114 127.3139 13.46037552407776",
"1 87541U 70025    22075.96563832 -.00000090  00000+0 -91966-4 0  9992",
"2 87541  99.8717 331.8544 0060368 319.4827  52.5410 13.34918657399637",
"1 87553U 76126    22076.30109441  .00001055  00000+0  39933-3 0  9999",
"2 87553  65.6762  28.1723 0729520 112.4332 255.5619 13.42088172407196",
"1 87557U 73086    22076.34894650  .00002429  00000+0  66437-2 0  9996",
"2 87557 101.7148 112.9864 0087444 129.7889 231.0958 13.13595277384778",
"1 87561U 76077    22076.47060095 -.00000016  00000+0  23450-3 0  9996",
"2 87561 102.1729 146.6083 0174720 266.8963 104.4732 12.32148004374167",
"1 87565U 99025    22076.05387310  .00000341  00000+0  23044-3 0  9993",
"2 87565  99.9424 291.5783 0181126 254.8853 103.2208 14.00500907424821",
"1 87569U 99025    22076.58270006 -.00000040  00000+0  36292-4 0  9995",
"2 87569 101.8156 194.7592 0055955  63.5159   5.6542 12.68475659385241",
"1 87587U 93036    22075.35601945  .00000139  00000+0  53591-4 0  9994",
"2 87587  74.0229 108.7277 0019637 118.3471 241.9667 14.38903668437067",
"1 87590U 99025    22069.27430431  .00000447  00000+0  28912-3 0  9996",
"2 87590  98.9522 112.3678 0027787 187.5681 190.7414 14.07722801961869",
"1 87616U 76067    22072.08853642  .00000234  00000+0  96881-3 0  9996",
"2 87616  66.0390 319.0621 0645319   1.4805 144.1991 12.44947520365496",
"1 87624U 99025    22076.40459700  .00001557  00000+0  34902-3 0  9996",
"2 87624  98.7721 291.6857 0130159 126.7818 234.5406 14.53062459380984",
"1 87642U          22073.26944405  .00040191  00000+0  22074-2 0  9996",
"2 87642  62.2259  73.7691 0116405 262.0264  96.7609 15.08202256445750",
"1 87650U          22074.92812706  .00003720  00000+0  14350-2 0  9992",
"2 87650 100.2774 316.9353 0050431 209.1972 150.6384 14.30309022990797",
"1 87656U          22075.10417770  .00010506  00000+0  23361-2 0  9993",
"2 87656  99.1350 215.1706 0018091 147.9832 212.2466 14.57085755800857",
"1 87664U 75052    22076.47120126  .00000454  00000+0  13458-2 0  9995",
"2 87664  99.7138  69.5774 0212489 220.2910 294.1060 13.06208619362931",
"1 87672U 93016    22071.23412539  .00001315  00000+0  64360-3 0  9991",
"2 87672  70.8617  63.7431 0066313 195.3471 164.5644 14.18645479429413",
"1 87681U          22075.27708872  .00000634  00000+0  76326-3 0  9996",
"2 87681  66.7368  85.8657 0168117 342.7600  16.7796 13.67195885414663",
"1 87690U 76126    22075.90496363  .00001394  00000+0  25485-3 0  9991",
"2 87690  65.7974 238.9695 0674950  10.0439 351.3359 13.78371289417684",
"1 87706U          22076.59194538  .00001879  00000+0  45850-3 0  9998",
"2 87706  98.5406 201.4200 0137170 125.7852 300.6830 14.48300714379865",
"1 87725U 81053    22076.02309678  .00004220  00000+0  13801-2 0  9990",
"2 87725  82.8999 341.6660 0032371  85.1423 275.3463 14.38048253435078",
"1 87727U 92093    22075.57810101  .00016030  00000+0  26172-2 0  9992",
"2 87727  70.9797 139.1176 0011009 265.6087  94.3807 14.70908667441496",
"1 87730U          22076.50300842  .00000075  00000+0  63505-4 0  9998",
"2 87730  82.9480 164.7346 0029479 208.1213 151.8352 13.74190134397677",
"1 87737U 99025    22075.89480665  .00000024  00000+0  70311-4 0  9990",
"2 87737  99.5784 307.6356 0134062 140.2352 220.8714 13.72021460416404",
"1 87764U 76126    22076.52670998  .00001800  00000+0  41700-3 0  9990",
"2 87764  65.6742 223.5702 0480403  34.6179  35.3538 14.04865782425467",
"1 87771U 75052    22075.21146761  .00000062  00000+0  26411-3 0  9997",
"2 87771 100.6624 228.3092 0120345 221.9511 137.2336 13.19046879354761",
"1 87782U 73086    22076.05476562  .00001664  00000+0  63853-2 0  9991",
"2 87782 102.3235 122.9069 0077435 120.3592 240.5184 12.91048938391043",
"1 87817U 68097    22075.95262108  .00020164  00000+0  97215-3 0  9999",
"2 87817  62.7602 164.8719 0187507  47.2405 314.4298 15.04591325480921",
"1 87843U 70025    22073.87212158  .00001187  00000+0  30171-2 0  9992",
"2 87843  99.6994 292.9845 0248958 315.2970  42.8311 13.10323656384510",
"1 87845U          22076.02436604  .00000822  00000+0  16695-2 0  9994",
"2 87845  98.8534 290.7882 0585752 148.2069 215.5837 12.84623532389477",
"1 87878U          22075.76432571  .00001313  00000+0  53189-3 0  9995",
"2 87878  99.2289  97.2852 0040972 276.5346  83.1170 14.29162119415429",
"1 87883U 99025    22073.92049383  .00000561  00000+0  22153-3 0  9998",
"2 87883  99.2281 328.0750 0296692 261.9965  94.7446 14.12232827378930",
